{"type": "FeatureCollection", "features": [ {"type": "Feature", "properties": {"norad_id": 41006, "name": "FENGYUN 1C DEB", "group": "fengyun-1c-debris", "lat": -72.14410305362513, "lon": -84.99862440601713, "alt_km": 879.4669484909509, "timestamp": "2025-12-23T18:59:32.256341+00:00", "meta": {"OBJECT_NAME": "FENGYUN 1C DEB", "OBJECT_ID": "1999-025EXL", "EPOCH": "2025-12-19T21:45:46.059840", "MEAN_MOTION": 13.85407302, "ECCENTRICITY": 0.0190575, "INCLINATION": 102.3676, "RA_OF_ASC_NODE": 226.9637, "ARG_OF_PERICENTER": 351.9089, "MEAN_ANOMALY": 7.8995, "EPHEMERIS_TYPE": 0, "CLASSIFICATION_TYPE": "U", "NORAD_CAT_ID": 41006, "ELEMENT_SET_NO": 999, "REV_AT_EPOCH": 57588, "BSTAR": 0.0020631, "MEAN_MOTION_DOT": 2.639e-05, "MEAN_MOTION_DDOT": 0}, "tle": {"line1": "1 41006U 99025EXL 25353.90678310  .00002639  00000+0  20631-2 0  9991", "line2": "2 41006 102.3676 226.9637 0190575 351.9089   7.8995 13.85407302575889"}}, "geometry": {"type": "Point", "coordinates": [-84.99862440601713, -72.14410305362513]}}, {"type": "Feature", "properties": {"norad_id": 41007, "name": "FENGYUN 1C DEB", "group": "fengyun-1c-debris", "lat": 43.37819309863034, "lon": -145.15861175234392, "alt_km": 1001.9787107404982, "timestamp": "2025-12-23T18:59:32.256350+00:00", "meta": {"OBJECT_NAME": "FENGYUN 1C DEB", "OBJECT_ID": "1999-025EXM", "EPOCH": "2025-11-29T06:55:22.773792", "MEAN_MOTION": 13.85678237, "ECCENTRICITY": 0.01723955, "INCLINATION": 99.9731, "RA_OF_ASC_NODE": 359.205, "ARG_OF_PERICENTER": 79.2855, "MEAN_ANOMALY": 282.7657, "EPHEMERIS_TYPE": 0, "CLASSIFICATION_TYPE": "U", "NORAD_CAT_ID": 41007, "ELEMENT_SET_NO": 999, "REV_AT_EPOCH": 57212, "BSTAR": 0.0017167305, "MEAN_MOTION_DOT": 2.158e-05, "MEAN_MOTION_DDOT": 0}, "tle": {"line1": "1 41007U 99025EXM 25333.28845803  .00002158  00000+0  17167-2 0  9990", "line2": "2 41007  99.9731 359.2050 0172395  79.2855 282.7657 13.85678237572123"}}, "geometry": {"type": "Point", "coordinates": [-145.15861175234392, 43.37819309863034]}}, {"type": "Feature", "properties": {"norad_id": 41011, "name": "FENGYUN 1C DEB", "group": "fengyun-1c-debris", "lat": 31.879600681532246, "lon": 37.88928102516165, "alt_km": 654.8260146461644, "timestamp": "2025-12-23T18:59:32.256359+00:00", "meta": {"OBJECT_NAME": "FENGYUN 1C DEB", "OBJECT_ID": "1999-025EXR", "EPOCH": "2025-12-22T09:33:57.368160", "MEAN_MOTION": 14.42961336, "ECCENTRICITY": 0.03095053, "INCLINATION": 99.1672, "RA_OF_ASC_NODE": 42.1537, "ARG_OF_PERICENTER": 329.5749, "MEAN_ANOMALY": 28.7789, "EPHEMERIS_TYPE": 0, "CLASSIFICATION_TYPE": "U", "NORAD_CAT_ID": 41011, "ELEMENT_SET_NO": 999, "REV_AT_EPOCH": 57296, "BSTAR": 0.00057983025, "MEAN_MOTION_DOT": 3.405e-05, "MEAN_MOTION_DDOT": 0}, "tle": {"line1": "1 41011U 99025EXR 25356.39858065  .00003405  00000+0  57983-3 0  9993", "line2": "2 41011  99.1672  42.1537 0309505 329.5749  28.7789 14.42961336572965"}}, "geometry": {"type": "Point", "coordinates": [37.88928102516165, 31.879600681532246]}}, {"type": "Feature", "properties": {"norad_id": 41018, "name": "FENGYUN 1C DEB", "group": "fengyun-1c-debris", "lat": -6.4634821852255815, "lon": -56.65351893191652, "alt_km": 1090.628589093053, "timestamp": "2025-12-23T18:59:32.256368+00:00", "meta": {"OBJECT_NAME": "FENGYUN 1C DEB", "OBJECT_ID": "1999-025EXY", "EPOCH": "2025-12-15T01:30:35.121600", "MEAN_MOTION": 13.52371588, "ECCENTRICITY": 0.03049079, "INCLINATION": 99.9356, "RA_OF_ASC_NODE": 293.4577, "ARG_OF_PERICENTER": 112.862, "MEAN_ANOMALY": 250.5013, "EPHEMERIS_TYPE": 0, "CLASSIFICATION_TYPE": "U", "NORAD_CAT_ID": 41018, "ELEMENT_SET_NO": 999, "REV_AT_EPOCH": 88206, "BSTAR": 0.0022149287, "MEAN_MOTION_DOT": 1.917e-05, "MEAN_MOTION_DDOT": 0}, "tle": {"line1": "1 41018U 99025EXY 25349.06290650  .00001917  00000+0  22149-2 0  9997", "line2": "2 41018  99.9356 293.4577 0304907 112.8620 250.5013 13.52371588882060"}}, "geometry": {"type": "Point", "coordinates": [-56.65351893191652, -6.4634821852255815]}}, {"type": "Feature", "properties": {"norad_id": 41822, "name": "FENGYUN 1C DEB", "group": "fengyun-1c-debris", "lat": 34.62596166095981, "lon": 57.84842765269813, "alt_km": 842.56662600255, "timestamp": "2025-12-23T18:59:32.256377+00:00", "meta": {"OBJECT_NAME": "FENGYUN 1C DEB", "OBJECT_ID": "1999-025EXZ", "EPOCH": "2025-12-21T02:47:00.274560", "MEAN_MOTION": 14.24852525, "ECCENTRICITY": 0.00558281, "INCLINATION": 98.7319, "RA_OF_ASC_NODE": 61.2799, "ARG_OF_PERICENTER": 196.6801, "MEAN_ANOMALY": 163.2543, "EPHEMERIS_TYPE": 0, "CLASSIFICATION_TYPE": "U", "NORAD_CAT_ID": 41822, "ELEMENT_SET_NO": 999, "REV_AT_EPOCH": 47492, "BSTAR": 0.0010920609, "MEAN_MOTION_DOT": 2.547e-05, "MEAN_MOTION_DDOT": 0}, "tle": {"line1": "1 41822U 99025EXZ 25355.11597540  .00002547  00000+0  10921-2 0  9996", "line2": "2 41822  98.7319  61.2799 0055828 196.6801 163.2543 14.24852525474927"}}, "geometry": {"type": "Point", "coordinates": [57.84842765269813, 34.62596166095981]}}, {"type": "Feature", "properties": {"norad_id": 41823, "name": "FENGYUN 1C DEB", "group": "fengyun-1c-debris", "lat": 54.203089575919776, "lon": 48.732649273065604, "alt_km": 839.0341054048022, "timestamp": "2025-12-23T18:59:32.256386+00:00", "meta": {"OBJECT_NAME": "FENGYUN 1C DEB", "OBJECT_ID": "1999-025EYA", "EPOCH": "2025-12-22T15:44:30.681024", "MEAN_MOTION": 14.23579214, "ECCENTRICITY": 0.00552111, "INCLINATION": 98.7196, "RA_OF_ASC_NODE": 59.8948, "ARG_OF_PERICENTER": 199.8824, "MEAN_ANOMALY": 160.0203, "EPHEMERIS_TYPE": 0, "CLASSIFICATION_TYPE": "U", "NORAD_CAT_ID": 41823, "ELEMENT_SET_NO": 999, "REV_AT_EPOCH": 47499, "BSTAR": 0.0013528564, "MEAN_MOTION_DOT": 3.087e-05, "MEAN_MOTION_DDOT": 0}, "tle": {"line1": "1 41823U 99025EYA 25356.65591066  .00003087  00000+0  13529-2 0  9991", "line2": "2 41823  98.7196  59.8948 0055211 199.8824 160.0203 14.23579214474991"}}, "geometry": {"type": "Point", "coordinates": [48.732649273065604, 54.203089575919776]}}, {"type": "Feature", "properties": {"norad_id": 41824, "name": "FENGYUN 1C DEB", "group": "fengyun-1c-debris", "lat": -52.15986472282384, "lon": 73.15489656476424, "alt_km": 832.720651322411, "timestamp": "2025-12-23T18:59:32.256395+00:00", "meta": {"OBJECT_NAME": "FENGYUN 1C DEB", "OBJECT_ID": "1999-025EYB", "EPOCH": "2025-12-23T04:04:05.569824", "MEAN_MOTION": 14.24232748, "ECCENTRICITY": 0.00579431, "INCLINATION": 98.7305, "RA_OF_ASC_NODE": 61.1279, "ARG_OF_PERICENTER": 197.8146, "MEAN_ANOMALY": 162.1002, "EPHEMERIS_TYPE": 0, "CLASSIFICATION_TYPE": "U", "NORAD_CAT_ID": 41824, "ELEMENT_SET_NO": 999, "REV_AT_EPOCH": 47508, "BSTAR": 0.0015436139, "MEAN_MOTION_DOT": 3.579e-05, "MEAN_MOTION_DDOT": 0}, "tle": {"line1": "1 41824U 99025EYB 25357.16950891  .00003579  00000+0  15436-2 0  9999", "line2": "2 41824  98.7305  61.1279 0057943 197.8146 162.1002 14.24232748475086"}}, "geometry": {"type": "Point", "coordinates": [73.15489656476424, -52.15986472282384]}}, {"type": "Feature", "properties": {"norad_id": 41825, "name": "FENGYUN 1C DEB", "group": "fengyun-1c-debris", "lat": -26.481802652008145, "lon": -117.61527599984329, "alt_km": 775.0673176918108, "timestamp": "2025-12-23T18:59:32.256404+00:00", "meta": {"OBJECT_NAME": "FENGYUN 1C DEB", "OBJECT_ID": "1999-025EYC", "EPOCH": "2025-12-21T03:40:51.708000", "MEAN_MOTION": 14.25146759, "ECCENTRICITY": 0.00562048, "INCLINATION": 98.7414, "RA_OF_ASC_NODE": 64.1533, "ARG_OF_PERICENTER": 196.8248, "MEAN_ANOMALY": 163.1069, "EPHEMERIS_TYPE": 0, "CLASSIFICATION_TYPE": "U", "NORAD_CAT_ID": 41825, "ELEMENT_SET_NO": 999, "REV_AT_EPOCH": 47468, "BSTAR": 0.0010509241, "MEAN_MOTION_DOT": 2.464e-05, "MEAN_MOTION_DDOT": 0}, "tle": {"line1": "1 41825U 99025EYC 25355.15337625  .00002464  00000+0  10509-2 0  9999", "line2": "2 41825  98.7414  64.1533 0056204 196.8248 163.1069 14.25146759474681"}}, "geometry": {"type": "Point", "coordinates": [-117.61527599984329, -26.481802652008145]}}, {"type": "Feature", "properties": {"norad_id": 41826, "name": "FENGYUN 1C DEB", "group": "fengyun-1c-debris", "lat": 54.758134812565, "lon": -103.9242493290878, "alt_km": 791.6370613742547, "timestamp": "2025-12-23T18:59:32.256413+00:00", "meta": {"OBJECT_NAME": "FENGYUN 1C DEB", "OBJECT_ID": "1999-025EYD", "EPOCH": "2025-12-17T15:40:24.664800", "MEAN_MOTION": 14.23780201, "ECCENTRICITY": 0.00560806, "INCLINATION": 98.7338, "RA_OF_ASC_NODE": 57.4138, "ARG_OF_PERICENTER": 209.4871, "MEAN_ANOMALY": 150.3141, "EPHEMERIS_TYPE": 0, "CLASSIFICATION_TYPE": "U", "NORAD_CAT_ID": 41826, "ELEMENT_SET_NO": 999, "REV_AT_EPOCH": 47430, "BSTAR": 0.0011247822, "MEAN_MOTION_DOT": 2.57e-05, "MEAN_MOTION_DDOT": 0}, "tle": {"line1": "1 41826U 99025EYD 25351.65306325  .00002570  00000+0  11248-2 0  9993", "line2": "2 41826  98.7338  57.4138 0056080 209.4871 150.3141 14.23780201474300"}}, "geometry": {"type": "Point", "coordinates": [-103.9242493290878, 54.758134812565]}}, {"type": "Feature", "properties": {"norad_id": 41827, "name": "FENGYUN 1C DEB", "group": "fengyun-1c-debris", "lat": 76.91615688258332, "lon": 25.499710480936542, "alt_km": 808.6978806875441, "timestamp": "2025-12-23T18:59:32.256422+00:00", "meta": {"OBJECT_NAME": "FENGYUN 1C DEB", "OBJECT_ID": "1999-025EYE", "EPOCH": "2025-12-22T03:51:52.066656", "MEAN_MOTION": 14.25340345, "ECCENTRICITY": 0.00586649, "INCLINATION": 98.7426, "RA_OF_ASC_NODE": 65.3361, "ARG_OF_PERICENTER": 187.1613, "MEAN_ANOMALY": 172.8735, "EPHEMERIS_TYPE": 0, "CLASSIFICATION_TYPE": "U", "NORAD_CAT_ID": 41827, "ELEMENT_SET_NO": 999, "REV_AT_EPOCH": 47465, "BSTAR": 0.0015345989, "MEAN_MOTION_DOT": 3.638e-05, "MEAN_MOTION_DDOT": 0}, "tle": {"line1": "1 41827U 99025EYE 25356.16101929  .00003638  00000+0  15346-2 0  9997", "line2": "2 41827  98.7426  65.3361 0058664 187.1613 172.8735 14.25340345474650"}}, "geometry": {"type": "Point", "coordinates": [25.499710480936542, 76.91615688258332]}}]}